TKSAT-1 (TUPAC KATARI)  
1 39481U 13075A   16151.57224897 -.00000201  00000-0  00000+0 0  9992
2 39481   0.0483 116.7771 0001379 328.1372 282.4270  1.00271338  9052
EXPRESS-AM5             
1 39487U 13077A   16149.44604481 -.00000284  00000-0  00000+0 0  9995
2 39487   0.0075 332.1255 0000903 115.8187  99.0974  1.00271672  9563
GSAT-14                 
1 39498U 14001A   16150.10837927 -.00000082  00000-0  00000+0 0  9999
2 39498   0.0307  90.9615 0006244 336.0074 293.1071  1.00272783  8779
THAICOM 6               
1 39500U 14002A   16150.88114920 -.00000127  00000-0  00000-0 0  9991
2 39500   0.0783 117.3188 0004181 352.9874 173.2271  1.00270092  8640
TDRS 12                 
1 39504U 14004A   16151.35920432 -.00000284  00000-0  00000+0 0  9996
2 39504   6.3620 336.6853 0002009 176.9364 183.0077  1.00266952  8657
ABS-2                   
1 39508U 14006A   16150.10571284 -.00000091  00000-0  00000-0 0  9998
2 39508   0.0591  79.1077 0003094 351.1737 289.7620  1.00271782  8534
ATHENA-FIDUS            
1 39509U 14006B   16150.20851303  .00000149  00000-0  00000-0 0  9996
2 39509   0.0104 314.6612 0001304 122.3314 283.0320  1.00270875  8275
TURKSAT 4A              
1 39522U 14007A   16150.19683583  .00000141  00000-0  00000+0 0  9994
2 39522   0.0248 283.1383 0000815  90.9993 345.8747  1.00272873  8408
EXPRESS-AT1             
1 39612U 14010A   16150.60060557  .00000073  00000-0  00000-0 0  9999
2 39612   0.0159 293.9954 0000193 241.6597 344.1108  1.00272053  8241
EXPRESS-AT2             
1 39613U 14010B   16151.46132620 -.00000288  00000-0  00000+0 0  9994
2 39613   0.0298 195.7921 0000719 203.7658 154.7678  1.00271019  8080
AMAZONAS 4A             
1 39616U 14011A   16150.48214424 -.00000288  00000-0  00000+0 0  9992
2 39616   0.0745  74.2788 0005262 346.4825 299.3012  1.00269372  8066
ASTRA 5B                
1 39617U 14011B   16150.68359064  .00000149  00000-0  00000+0 0  9990
2 39617   0.0380  30.2762 0002469  49.0587  85.9212  1.00273413  8065
IRNSS-1B                
1 39635U 14017A   16149.99693338  .00000055  00000-0  00000-0 0  9990
2 39635  29.7751 300.8844 0020960 178.9380 181.0363  1.00271176  7788
LUCH 5V                 
1 39727U 14023A   16151.58968759 -.00000278  00000-0  00000+0 0  9996
2 39727   3.4373 299.9435 0002062 158.4945  97.0550  1.00275282525721
KAZSAT 3                
1 39728U 14023B   16150.15115662  .00000056  00000-0  00000+0 0  9999
2 39728   0.0218  54.9413 0000541  76.0492 229.0242  1.00271066  7636
EUTELSAT 3B             
1 39773U 14030A   16150.10574926  .00000015  00000-0  00000-0 0  9990
2 39773   0.0598   2.5355 0002320 122.3302 163.3646  1.00271077  7262
ASIASAT 8               
1 40107U 14046A   16150.02148367 -.00000338  00000-0  00000-0 0  9996
2 40107   0.0252  54.8169 0001214  23.9143 281.2926  1.00274017  6734
ASIASAT 6               
1 40141U 14052A   16148.15496794 -.00000364  00000-0  00000+0 0  9990
2 40141   0.0513  97.6291 0000814 354.4959 328.7035  1.00269705  6337
OPTUS 10                
1 40146U 14054A   16150.85623182 -.00000081  00000-0  00000+0 0  9996
2 40146   0.0921 357.0523 0001530  92.1592 270.8156  1.00270596  6321
MEASAT-3B               
1 40147U 14054B   16150.05981174 -.00000247  00000-0  00000+0 0  9991
2 40147   0.0305  21.1688 0002731  10.7342 328.1237  1.00274154  6367
LUCH (OLYMP)            
1 40258U 14058A   16151.30728319 -.00000017  00000-0  00000+0 0  9992
2 40258   0.0112 356.6258 0000487 111.3605 249.8256  1.00272652  6137
HIMAWARI 8              
1 40267U 14060A   16149.92349494 -.00000280  00000-0  00000-0 0  9996
2 40267   0.0304  80.0525 0001058   4.0550 275.9147  1.00273417  5955
IRNSS-1C                
1 40269U 14061A   16150.80701354 -.00000169  00000-0  00000+0 0  9990
2 40269   3.7732 261.1148 0018098   2.6346 357.5939  1.00275328  6011
INTELSAT 30 (IS-30)     
1 40271U 14062A   16149.30440624 -.00000154  00000-0  00000+0 0  9991
2 40271   0.0155 358.5301 0001844 160.6794 101.5857  1.00269659  5945
ARSAT 1                 
1 40272U 14062B   16150.42912977 -.00000265  00000-0  00000+0 0  9995
2 40272   0.0309  86.8311 0001140 351.8711 251.3815  1.00271607  6070
EXPRESS-AM6             
1 40277U 14064A   16151.56885659  .00000092  00000-0  00000+0 0  9991
2 40277   0.0388 109.3661 0000736   8.6272  28.2981  1.00272030  5873
GSAT-16                 
1 40332U 14078A   16150.16087033  .00000080  00000-0  00000+0 0  9990
2 40332   0.0224 262.4925 0006955 178.3222 279.2742  1.00271518  5454
DIRECTV 14              
1 40333U 14078B   16151.32780764 -.00000132  00000-0  00000+0 0  9990
2 40333   0.0195 316.1582 0000324   7.6611 303.2321  1.00271793  5443
YAMAL 401               
1 40345U 14082A   16151.59030152 -.00000235  00000-0  00000+0 0  9990
2 40345   0.0717 100.3456 0000383 317.9246 132.7213  1.00270621  5618
ASTRA 2G                
1 40364U 14089A   16150.23516668  .00000145  00000-0  00000-0 0  9999
2 40364   0.0326 350.5361 0004740  75.6370 293.8867  1.00275509  5160
FENGYUN 2G              
1 40367U 14090A   16150.89977957 -.00000335  00000-0  00000-0 0  9990
2 40367   1.2262 272.2856 0003636 283.6837 120.5075  1.00267663  5244
INMARSAT 5-F2           
1 40384U 15005A   16151.22156822 -.00000291  00000-0  00000+0 0  9994
2 40384   0.0189 327.1319 0000241 276.0746  29.7039  1.00269373  4874
ABS-3A                  
1 40424U 15010A   16150.32126715 -.00000031  00000-0  00000+0 0  9995
2 40424   0.0189 322.2685 0002043  21.7297  15.9953  1.00270128  4602
EUTELSAT 115 WEST B     
1 40425U 15010B   16150.63143321 -.00000030  00000-0  00000+0 0  9991
2 40425   0.0014 140.7623 0000569 352.2715 226.9806  1.00271634  4630
EXPRESS-AM7             
1 40505U 15012A   16150.94666850  .00000145  00000-0  00000-0 0  9990
2 40505   0.0003 320.2190 0002610 119.9965 188.4718  1.00270991  4555
IRNSS-1D                
1 40547U 15018A   16150.83722246 -.00000328  00000-0  00000-0 0  9996
2 40547  29.7745 301.0165 0021793 179.4402 180.5303  1.00271076  4199
BEIDOU I1-S             
1 40549U 15019A   16151.56242479 -.00000170  00000-0  00000+0 0  9999
2 40549  54.7206 338.1309 0041634 178.1362  30.4997  1.00265799  4286
THOR 7                  
1 40613U 15022A   16150.31504039 -.00000013  00000-0  00000-0 0  9997
2 40613   0.0152 229.4868 0002470 200.7408 289.8090  1.00271727  4026
TURKMENALEM52E/MONACOSAT
1 40617U 15023A   16151.16617011  .00000098  00000-0  00000+0 0  9992
2 40617   0.0251 352.0017 0002871  87.5085 280.5222  1.00268767  4054
DIRECTV 15              
1 40663U 15026A   16150.59783563 -.00000109  00000-0  00000+0 0  9992
2 40663   0.0120  44.9753 0000482  83.0729 231.9657  1.00273023  3733
SKY MEXICO-1            
1 40664U 15026B   16149.53420947 -.00000239  00000-0  00000+0 0  9993
2 40664   0.0136 305.2858 0002105 127.1685 287.5793  1.00272322  3723
METEOSAT-11 (MSG-4)     
1 40732U 15034A   16151.03698888 -.00000036  00000-0  00000+0 0  9992
2 40732   2.5450 257.2330 0001019  94.1526 266.2108  1.00269555  3241
STAR ONE C4             
1 40733U 15034B   16150.30372633 -.00000270  00000-0  00000+0 0  9999
2 40733   0.0366  34.8282 0007727 144.1964 107.4766  1.00271633  3224
INTELSAT 34 (IS-34)     
1 40874U 15039A   16150.18715664 -.00000290  00000-0  00000+0 0  9993
2 40874   0.0121  11.4695 0000314  27.3262 220.2247  1.00270352  2860
EUTELSAT 8 WEST B       
1 40875U 15039B   16150.33546433 -.00000071  00000-0  00000-0 0  9995
2 40875   0.0647   8.8201 0002794  58.1975 293.0218  1.00272031  2899
GSAT-6                  
1 40880U 15041A   16150.08301751 -.00000170  00000-0  00000+0 0  9997
2 40880   0.6236 272.6055 0006171   9.8090  77.5276  1.00271928  2823
INMARSAT 5-F3           
1 40882U 15042A   16150.81287390  .00000044  00000-0  00000+0 0  9992
2 40882   0.0213 319.6376 0000077  96.6032 303.7600  1.00270009  2757
TJS-1                   
1 40892U 15046A   16151.59334301 -.00000162  00000-0  00000+0 0  9990
2 40892   0.0042 300.8240 0003387  98.2161 218.1322  1.00272324  2750
EXPRESS-AM8             
1 40895U 15048A   16150.80548198 -.00000117  00000-0  00000-0 0  9990
2 40895   0.0069 252.6737 0000628 182.0639  88.9873  1.00271756  2576
BEIDOU I2-S             
1 40938U 15053A   16151.08184309 -.00000154  00000-0  00000+0 0  9995
2 40938  54.7220 300.9933 0043114 166.2373 264.6251  1.00292324  2566
SKY MUSTER (NBN1A)      
1 40940U 15054A   16149.92473090 -.00000283  00000-0  00000+0 0  9990
2 40940   0.0126 301.8947 0001855 134.1084 284.0278  1.00271979  2481
ARSAT 2                 
1 40941U 15054B   16150.53787875 -.00000230  00000-0  00000+0 0  9991
2 40941   0.0171  50.7500 0001098  27.5478 281.7242  1.00271712  2512
MORELOS 3               
1 40946U 15056A   16150.54602162 -.00000058  00000-0  00000+0 0  9992
2 40946   6.8803 331.0340 0001064 179.7670 180.1924  1.00273186  2489
APSTAR 9                
1 40982U 15059A   16149.91978076 -.00000270  00000-0  00000+0 0  9990
2 40982   0.0396  85.7286 0000930 201.5400  72.7313  1.00273478  2347
TURKSAT 4B              
1 40984U 15060A   16151.17203138  .00000109  00000-0  00000+0 0  9995
2 40984   0.0404  85.0120 0002235 354.8893 280.1330  1.00271908  2314
CHINASAT 2C (ZX 2C)     
1 41021U 15063A   16150.42514668 -.00000329  00000-0  00000-0 0  9997
2 41021   0.1519 266.0202 0002816 182.3945  55.4676  1.00270994  2202
GSAT-15                 
1 41028U 15065A   16150.93586957 -.00000264  00000-0  00000+0 0  9999
2 41028   0.0532 113.0876 0003145 287.2188 278.0203  1.00272291  2055
BADR-7 (ARABSAT-6B)     
1 41029U 15065B   16151.16251404  .00000146  00000-0  00000+0 0  9990
2 41029   0.0397 253.7094 0002113 329.8685 122.0330  1.00274179  2100
LAOSAT 1                
1 41034U 15067A   16147.92201279 -.00000345  00000-0  00000+0 0  9994
2 41034   0.0193 190.1583 0003013 316.7330 198.4568  1.00271538  2004
